NEXTSAT-1               
1 43811U 18099BF  26068.68342010  .00004546  00000+0  29857-3 0  9992
2 43811  97.4203 114.8574 0011320 323.9610  36.0854 15.08057555396886
STARLINK-3203           
1 49761U 21115AP  26068.42580933 -.00000871  00000+0 -36624-4 0  9995
2 49761  53.2181 140.3041 0001388  85.9447 274.1704 15.08834749235632
